{"fetched_at":"2026-07-08T07:03:46.342Z","source":"https://celestrak.org/NORAD/elements/gp.php?NAME=BRO&FORMAT=JSON","constellation":"unseenlabs","records":[{"OBJECT_NAME":"BRO-1","OBJECT_ID":"2019-054A","EPOCH":"2026-07-06T22:06:50.203296","CLASSIFICATION_TYPE":"U","MEAN_MOTION":16.04407051,"ECCENTRICITY":0.00087091,"INCLINATION":44.9854,"RA_OF_ASC_NODE":169.9464,"ARG_OF_PERICENTER":109.1044,"MEAN_ANOMALY":251.0812,"EPHEMERIS_TYPE":0,"NORAD_CAT_ID":44495,"ELEMENT_SET_NO":999,"REV_AT_EPOCH":38289,"BSTAR":0.00081768159,"MEAN_MOTION_DOT":0.00563718,"MEAN_MOTION_DDOT":0.0001577491},{"OBJECT_NAME":"BRO-5","OBJECT_ID":"2022-002CF","EPOCH":"2026-07-07T20:56:31.625664","CLASSIFICATION_TYPE":"U","MEAN_MOTION":15.48570053,"ECCENTRICITY":0.0004622,"INCLINATION":97.2983,"RA_OF_ASC_NODE":262.7399,"ARG_OF_PERICENTER":231.519,"MEAN_ANOMALY":128.5646,"EPHEMERIS_TYPE":0,"NORAD_CAT_ID":51061,"ELEMENT_SET_NO":999,"REV_AT_EPOCH":24945,"BSTAR":0.00038579,"MEAN_MOTION_DOT":0.00020504,"MEAN_MOTION_DDOT":0},{"OBJECT_NAME":"BRO-6","OBJECT_ID":"2022-047AE","EPOCH":"2026-07-07T20:15:31.476384","CLASSIFICATION_TYPE":"U","MEAN_MOTION":15.52123878,"ECCENTRICITY":0.0003216,"INCLINATION":97.3388,"RA_OF_ASC_NODE":280.3167,"ARG_OF_PERICENTER":350.9006,"MEAN_ANOMALY":9.2188,"EPHEMERIS_TYPE":0,"NORAD_CAT_ID":52422,"ELEMENT_SET_NO":999,"REV_AT_EPOCH":23435,"BSTAR":0.00047752,"MEAN_MOTION_DOT":0.00028824,"MEAN_MOTION_DDOT":0},{"OBJECT_NAME":"BRO-8","OBJECT_ID":"2023-001C","EPOCH":"2026-07-07T20:09:49.106016","CLASSIFICATION_TYPE":"U","MEAN_MOTION":15.50405137,"ECCENTRICITY":0.0005651,"INCLINATION":97.319,"RA_OF_ASC_NODE":254.3389,"ARG_OF_PERICENTER":64.4298,"MEAN_ANOMALY":295.7537,"EPHEMERIS_TYPE":0,"NORAD_CAT_ID":55011,"ELEMENT_SET_NO":999,"REV_AT_EPOCH":19540,"BSTAR":0.00042637,"MEAN_MOTION_DOT":0.00024196,"MEAN_MOTION_DDOT":0},{"OBJECT_NAME":"BRO-11","OBJECT_ID":"2023-174J","EPOCH":"2026-07-07T19:37:17.064768","CLASSIFICATION_TYPE":"U","MEAN_MOTION":15.27549267,"ECCENTRICITY":0.0011699,"INCLINATION":97.3896,"RA_OF_ASC_NODE":265.4739,"ARG_OF_PERICENTER":130.2574,"MEAN_ANOMALY":229.969,"EPHEMERIS_TYPE":0,"NORAD_CAT_ID":58264,"ELEMENT_SET_NO":999,"REV_AT_EPOCH":14790,"BSTAR":0.00012857,"MEAN_MOTION_DOT":0.00003395,"MEAN_MOTION_DDOT":0},{"OBJECT_NAME":"BRO-13","OBJECT_ID":"2024-043K","EPOCH":"2026-07-07T21:15:04.607136","CLASSIFICATION_TYPE":"U","MEAN_MOTION":14.96639298,"ECCENTRICITY":0.0007774,"INCLINATION":97.8516,"RA_OF_ASC_NODE":319.9728,"ARG_OF_PERICENTER":292.2817,"MEAN_ANOMALY":67.7579,"EPHEMERIS_TYPE":0,"NORAD_CAT_ID":59107,"ELEMENT_SET_NO":999,"REV_AT_EPOCH":12771,"BSTAR":0.000067933,"MEAN_MOTION_DOT":0.00000715,"MEAN_MOTION_DDOT":0},{"OBJECT_NAME":"BRO-12","OBJECT_ID":"2024-043L","EPOCH":"2026-07-07T21:04:37.101216","CLASSIFICATION_TYPE":"U","MEAN_MOTION":14.96885511,"ECCENTRICITY":0.000706,"INCLINATION":97.8506,"RA_OF_ASC_NODE":320.1332,"ARG_OF_PERICENTER":287.5299,"MEAN_ANOMALY":72.5151,"EPHEMERIS_TYPE":0,"NORAD_CAT_ID":59108,"ELEMENT_SET_NO":999,"REV_AT_EPOCH":12773,"BSTAR":0.000040331,"MEAN_MOTION_DOT":0.00000403,"MEAN_MOTION_DDOT":0},{"OBJECT_NAME":"BRO-14","OBJECT_ID":"2024-149CM","EPOCH":"2026-07-07T17:26:27.272256","CLASSIFICATION_TYPE":"U","MEAN_MOTION":14.96224897,"ECCENTRICITY":0.000741,"INCLINATION":97.6864,"RA_OF_ASC_NODE":264.1355,"ARG_OF_PERICENTER":38.7074,"MEAN_ANOMALY":321.4677,"EPHEMERIS_TYPE":0,"NORAD_CAT_ID":60551,"ELEMENT_SET_NO":999,"REV_AT_EPOCH":10306,"BSTAR":0.000050967,"MEAN_MOTION_DOT":0.00000518,"MEAN_MOTION_DDOT":0},{"OBJECT_NAME":"BRO-15","OBJECT_ID":"2024-149CP","EPOCH":"2026-07-06T16:56:55.454496","CLASSIFICATION_TYPE":"U","MEAN_MOTION":14.96221512,"ECCENTRICITY":0.00086387,"INCLINATION":97.6803,"RA_OF_ASC_NODE":262.7154,"ARG_OF_PERICENTER":31.9922,"MEAN_ANOMALY":328.1822,"EPHEMERIS_TYPE":0,"NORAD_CAT_ID":60553,"ELEMENT_SET_NO":999,"REV_AT_EPOCH":10292,"BSTAR":0.00021495684,"MEAN_MOTION_DOT":0.00002369,"MEAN_MOTION_DDOT":0},{"OBJECT_NAME":"BRO-16","OBJECT_ID":"2025-009AX","EPOCH":"2026-07-07T18:16:09.499584","CLASSIFICATION_TYPE":"U","MEAN_MOTION":15.24094648,"ECCENTRICITY":0.0001421,"INCLINATION":97.405,"RA_OF_ASC_NODE":268.9935,"ARG_OF_PERICENTER":170.287,"MEAN_ANOMALY":189.8395,"EPHEMERIS_TYPE":0,"NORAD_CAT_ID":62654,"ELEMENT_SET_NO":999,"REV_AT_EPOCH":8193,"BSTAR":0.00011618,"MEAN_MOTION_DOT":0.0000275,"MEAN_MOTION_DDOT":0},{"OBJECT_NAME":"BRO-18","OBJECT_ID":"2025-135Y","EPOCH":"2026-07-07T19:53:35.640672","CLASSIFICATION_TYPE":"U","MEAN_MOTION":15.22132598,"ECCENTRICITY":0.0002168,"INCLINATION":97.4644,"RA_OF_ASC_NODE":303.7013,"ARG_OF_PERICENTER":125.1217,"MEAN_ANOMALY":235.0222,"EPHEMERIS_TYPE":0,"NORAD_CAT_ID":64550,"ELEMENT_SET_NO":999,"REV_AT_EPOCH":5801,"BSTAR":0.0001314,"MEAN_MOTION_DOT":0.00002941,"MEAN_MOTION_DDOT":0},{"OBJECT_NAME":"BRO-17","OBJECT_ID":"2025-276G","EPOCH":"2026-07-07T17:57:12.860928","CLASSIFICATION_TYPE":"U","MEAN_MOTION":15.18126315,"ECCENTRICITY":0.0005094,"INCLINATION":97.4182,"RA_OF_ASC_NODE":261.4606,"ARG_OF_PERICENTER":294.0645,"MEAN_ANOMALY":66.0056,"EPHEMERIS_TYPE":0,"NORAD_CAT_ID":66672,"ELEMENT_SET_NO":999,"REV_AT_EPOCH":3351,"BSTAR":0.00011377,"MEAN_MOTION_DOT":0.00002255,"MEAN_MOTION_DDOT":0},{"OBJECT_NAME":"BRO-20","OBJECT_ID":"2025-276J","EPOCH":"2026-07-07T17:23:52.789056","CLASSIFICATION_TYPE":"U","MEAN_MOTION":15.18298334,"ECCENTRICITY":0.0004784,"INCLINATION":97.416,"RA_OF_ASC_NODE":261.4265,"ARG_OF_PERICENTER":298.0396,"MEAN_ANOMALY":62.0354,"EPHEMERIS_TYPE":0,"NORAD_CAT_ID":66674,"ELEMENT_SET_NO":999,"REV_AT_EPOCH":3351,"BSTAR":0.00010679,"MEAN_MOTION_DOT":0.00002123,"MEAN_MOTION_DDOT":0},{"OBJECT_NAME":"BRO-19","OBJECT_ID":"2026-067G","EPOCH":"2026-07-07T08:10:13.986624","CLASSIFICATION_TYPE":"U","MEAN_MOTION":15.18953576,"ECCENTRICITY":0.00022234,"INCLINATION":97.4488,"RA_OF_ASC_NODE":146.51,"ARG_OF_PERICENTER":115.5403,"MEAN_ANOMALY":244.6062,"EPHEMERIS_TYPE":0,"NORAD_CAT_ID":68422,"ELEMENT_SET_NO":999,"REV_AT_EPOCH":1500,"BSTAR":0.0001034165,"MEAN_MOTION_DOT":0.00002093,"MEAN_MOTION_DDOT":0},{"OBJECT_NAME":"BRO-21","OBJECT_ID":"2026-100AD","EPOCH":"2026-07-07T17:02:19.525344","CLASSIFICATION_TYPE":"U","MEAN_MOTION":15.21596098,"ECCENTRICITY":0.0007645,"INCLINATION":97.4019,"RA_OF_ASC_NODE":86.2681,"ARG_OF_PERICENTER":356.9524,"MEAN_ANOMALY":3.1664,"EPHEMERIS_TYPE":0,"NORAD_CAT_ID":69007,"ELEMENT_SET_NO":999,"REV_AT_EPOCH":992,"BSTAR":0.000083479,"MEAN_MOTION_DOT":0.00001815,"MEAN_MOTION_DDOT":0},{"OBJECT_NAME":"BRO-22","OBJECT_ID":"2026-132C","EPOCH":"2026-07-07T16:50:50.838720","CLASSIFICATION_TYPE":"U","MEAN_MOTION":14.99793155,"ECCENTRICITY":0.0015758,"INCLINATION":97.6834,"RA_OF_ASC_NODE":252.1195,"ARG_OF_PERICENTER":208.122,"MEAN_ANOMALY":151.9154,"EPHEMERIS_TYPE":0,"NORAD_CAT_ID":69504,"ELEMENT_SET_NO":999,"REV_AT_EPOCH":385,"BSTAR":0.000084937,"MEAN_MOTION_DOT":0.00000993,"MEAN_MOTION_DDOT":0}]}
