BRO-1                   
1 44495U 19054A   26187.92141439  .00563718  15775-3  81768-3 0  9993
2 44495  44.9854 169.9464 0008709 109.1044 251.0812 16.04407051382891
BRO-5                   
1 51061U 22002CF  26188.87258826  .00020504  00000+0  38579-3 0  9995
2 51061  97.2983 262.7399 0004622 231.5190 128.5646 15.48570053249450
BRO-6                   
1 52422U 22047AE  26188.84411431  .00028824  00000+0  47752-3 0  9992
2 52422  97.3388 280.3167 0003216 350.9006   9.2188 15.52123878234354
BRO-8                   
1 55011U 23001C   26188.84015169  .00024196  00000+0  42637-3 0  9993
2 55011  97.3190 254.3389 0005651  64.4298 295.7537 15.50405137195405
BRO-11                  
1 58264U 23174J   26188.81755862  .00003395  00000+0  12857-3 0  9994
2 58264  97.3896 265.4739 0011699 130.2574 229.9690 15.27549267147909
BRO-13                  
1 59107U 24043K   26188.88546999  .00000715  00000+0  67933-4 0  9992
2 59107  97.8516 319.9728 0007774 292.2817  67.7579 14.96639298127711
BRO-12                  
1 59108U 24043L   26188.87820719  .00000403  00000+0  40331-4 0  9994
2 59108  97.8506 320.1332 0007060 287.5299  72.5151 14.96885511127738
BRO-14                  
1 60551U 24149CM  26188.72670454  .00000518  00000+0  50967-4 0  9991
2 60551  97.6864 264.1355 0007410  38.7074 321.4677 14.96224897103068
BRO-15                  
1 60553U 24149CP  26187.70619739  .00002369  00000+0  21496-3 0  9999
2 60553  97.6803 262.7154 0008638  31.9922 328.1822 14.96221512102925
BRO-16                  
1 62654U 25009AX  26188.76122106  .00002750  00000+0  11618-3 0  9992
2 62654  97.4050 268.9935 0001421 170.2870 189.8395 15.24094648 81932
BRO-18                  
1 64550U 25135Y   26188.82888473  .00002941  00000+0  13140-3 0  9996
2 64550  97.4644 303.7013 0002168 125.1217 235.0222 15.22132598 58017
BRO-17                  
1 66672U 25276G   26188.74806552  .00002255  00000+0  11377-3 0  9996
2 66672  97.4182 261.4606 0005094 294.0645  66.0056 15.18126315 33511
BRO-20                  
1 66674U 25276J   26188.72491654  .00002123  00000+0  10679-3 0  9997
2 66674  97.4160 261.4265 0004784 298.0396  62.0354 15.18298334 33510
BRO-19                  
1 68422U 26067G   26188.34043966  .00002093  00000+0  10342-3 0  9999
2 68422  97.4488 146.5100 0002223 115.5403 244.6062 15.18953576 15009
BRO-21                  
1 69007U 26100AD  26188.70994821  .00001815  00000+0  83479-4 0  9995
2 69007  97.4019  86.2681 0007645 356.9524   3.1664 15.21596098  9927
BRO-22                  
1 69504U 26132C   26188.70197730  .00000993  00000+0  84937-4 0  9992
2 69504  97.6834 252.1195 0015758 208.1220 151.9154 14.99793155  3854
